{"type": "FeatureCollection", "features": [ {"type": "Feature", "properties": {"norad_id": 44542, "name": "BEIDOU-3 M24 (C46)", "group": "beidou", "lat": 33.528026539049705, "lon": -142.79650404409367, "alt_km": 21498.591397287164, "timestamp": "2025-12-17T19:34:08.304046+00:00", "meta": {"OBJECT_NAME": "BEIDOU-3 M24 (C46)", "OBJECT_ID": "2019-061A", "EPOCH": "2025-12-16T03:22:44.327712", "MEAN_MOTION": 1.86229353, "ECCENTRICITY": 0.00096014, "INCLINATION": 54.4001, "RA_OF_ASC_NODE": 188.9011, "ARG_OF_PERICENTER": 24.8001, "MEAN_ANOMALY": 335.316, "EPHEMERIS_TYPE": 0, "CLASSIFICATION_TYPE": "U", "NORAD_CAT_ID": 44542, "ELEMENT_SET_NO": 999, "REV_AT_EPOCH": 4238, "BSTAR": 0, "MEAN_MOTION_DOT": 1.15e-06, "MEAN_MOTION_DDOT": 0}, "tle": {"line1": "1 44542U 19061A   25350.14079083  .00000115  00000+0  00000+0 0  9998", "line2": "2 44542  54.4001 188.9011 0009601  24.8001 335.3160  1.86229353 42381"}}, "geometry": {"type": "Point", "coordinates": [-142.79650404409367, 33.528026539049705]}}, {"type": "Feature", "properties": {"norad_id": 44543, "name": "BEIDOU-3 M23 (C45)", "group": "beidou", "lat": -34.76873693220799, "lon": 158.9801261096657, "alt_km": 21526.574116340755, "timestamp": "2025-12-17T19:34:08.304057+00:00", "meta": {"OBJECT_NAME": "BEIDOU-3 M23 (C45)", "OBJECT_ID": "2019-061B", "EPOCH": "2025-12-16T19:20:04.225344", "MEAN_MOTION": 1.86227685, "ECCENTRICITY": 0.00060954, "INCLINATION": 54.399, "RA_OF_ASC_NODE": 188.847, "ARG_OF_PERICENTER": 24.4715, "MEAN_ANOMALY": 334.1063, "EPHEMERIS_TYPE": 0, "CLASSIFICATION_TYPE": "U", "NORAD_CAT_ID": 44543, "ELEMENT_SET_NO": 999, "REV_AT_EPOCH": 4239, "BSTAR": 0, "MEAN_MOTION_DOT": 1.15e-06, "MEAN_MOTION_DDOT": 0}, "tle": {"line1": "1 44543U 19061B   25350.80560446  .00000115  00000+0  00000+0 0  9990", "line2": "2 44543  54.3990 188.8470 0006095  24.4715 334.1063  1.86227685 42394"}}, "geometry": {"type": "Point", "coordinates": [158.9801261096657, -34.76873693220799]}}, {"type": "Feature", "properties": {"norad_id": 44709, "name": "BEIDOU-3 IGSO-3 (C40)", "group": "beidou", "lat": -24.411088749448602, "lon": 121.24282861182648, "alt_km": 35619.34345482088, "timestamp": "2025-12-17T19:34:08.304072+00:00", "meta": {"OBJECT_NAME": "BEIDOU-3 IGSO-3 (C40)", "OBJECT_ID": "2019-073A", "EPOCH": "2025-11-20T07:11:22.740000", "MEAN_MOTION": 1.00250097, "ECCENTRICITY": 0.0044538, "INCLINATION": 55.163, "RA_OF_ASC_NODE": 283.159, "ARG_OF_PERICENTER": 191.5856, "MEAN_ANOMALY": 168.2409, "EPHEMERIS_TYPE": 0, "CLASSIFICATION_TYPE": "U", "NORAD_CAT_ID": 44709, "ELEMENT_SET_NO": 999, "REV_AT_EPOCH": 2236, "BSTAR": 0, "MEAN_MOTION_DOT": -2.06e-06, "MEAN_MOTION_DDOT": 0}, "tle": {"line1": "1 44709U 19073A   25324.29956875 -.00000206  00000+0  00000+0 0  9998", "line2": "2 44709  55.1630 283.1590 0044538 191.5856 168.2409  1.00250097 22360"}}, "geometry": {"type": "Point", "coordinates": [121.24282861182648, -24.411088749448602]}}, {"type": "Feature", "properties": {"norad_id": 44793, "name": "BEIDOU-3 M22 (C44)", "group": "beidou", "lat": 23.797841551161145, "lon": 107.57299004745822, "alt_km": 21534.729381786765, "timestamp": "2025-12-17T19:34:08.304087+00:00", "meta": {"OBJECT_NAME": "BEIDOU-3 M22 (C44)", "OBJECT_ID": "2019-078A", "EPOCH": "2025-12-17T01:18:45.560736", "MEAN_MOTION": 1.86231936, "ECCENTRICITY": 0.00058159, "INCLINATION": 54.1041, "RA_OF_ASC_NODE": 306.2341, "ARG_OF_PERICENTER": 23.4799, "MEAN_ANOMALY": 336.5334, "EPHEMERIS_TYPE": 0, "CLASSIFICATION_TYPE": "U", "NORAD_CAT_ID": 44793, "ELEMENT_SET_NO": 999, "REV_AT_EPOCH": 4125, "BSTAR": 0, "MEAN_MOTION_DOT": -9.2e-07, "MEAN_MOTION_DDOT": 0}, "tle": {"line1": "1 44793U 19078A   25351.05469399 -.00000092  00000+0  00000+0 0  9993", "line2": "2 44793  54.1041 306.2341 0005815  23.4799 336.5334  1.86231936 41254"}}, "geometry": {"type": "Point", "coordinates": [107.57299004745822, 23.797841551161145]}}, {"type": "Feature", "properties": {"norad_id": 44794, "name": "BEIDOU-3 M21 (C43)", "group": "beidou", "lat": 43.18536262263227, "lon": -11.018661239837828, "alt_km": 21515.155651643225, "timestamp": "2025-12-17T19:34:08.304098+00:00", "meta": {"OBJECT_NAME": "BEIDOU-3 M21 (C43)", "OBJECT_ID": "2019-078B", "EPOCH": "2025-12-16T15:43:55.727904", "MEAN_MOTION": 1.86227668, "ECCENTRICITY": 0.00041169, "INCLINATION": 54.078, "RA_OF_ASC_NODE": 306.2132, "ARG_OF_PERICENTER": 11.942, "MEAN_ANOMALY": 348.0544, "EPHEMERIS_TYPE": 0, "CLASSIFICATION_TYPE": "U", "NORAD_CAT_ID": 44794, "ELEMENT_SET_NO": 999, "REV_AT_EPOCH": 4125, "BSTAR": 0, "MEAN_MOTION_DOT": -9.5e-07, "MEAN_MOTION_DDOT": 0}, "tle": {"line1": "1 44794U 19078B   25350.65550611 -.00000095  00000+0  00000+0 0  9990", "line2": "2 44794  54.0780 306.2132 0004116  11.9420 348.0544  1.86227668 41256"}}, "geometry": {"type": "Point", "coordinates": [-11.018661239837828, 43.18536262263227]}}, {"type": "Feature", "properties": {"norad_id": 44864, "name": "BEIDOU-3 M19 (C41)", "group": "beidou", "lat": -52.94816032364231, "lon": -49.63770100500445, "alt_km": 21491.447882128472, "timestamp": "2025-12-17T19:34:08.304109+00:00", "meta": {"OBJECT_NAME": "BEIDOU-3 M19 (C41)", "OBJECT_ID": "2019-090A", "EPOCH": "2025-12-14T04:04:53.318784", "MEAN_MOTION": 1.86231555, "ECCENTRICITY": 0.00179181, "INCLINATION": 56.3949, "RA_OF_ASC_NODE": 68.9134, "ARG_OF_PERICENTER": 285.3736, "MEAN_ANOMALY": 44.0547, "EPHEMERIS_TYPE": 0, "CLASSIFICATION_TYPE": "U", "NORAD_CAT_ID": 44864, "ELEMENT_SET_NO": 999, "REV_AT_EPOCH": 4078, "BSTAR": 0, "MEAN_MOTION_DOT": -8.2e-07, "MEAN_MOTION_DDOT": 0}, "tle": {"line1": "1 44864U 19090A   25348.17006156 -.00000082  00000+0  00000+0 0  9992", "line2": "2 44864  56.3949  68.9134 0017918 285.3736  44.0547  1.86231555 40784"}}, "geometry": {"type": "Point", "coordinates": [-49.63770100500445, -52.94816032364231]}}, {"type": "Feature", "properties": {"norad_id": 44865, "name": "BEIDOU-3 M20 (C42)", "group": "beidou", "lat": -13.986076156521689, "lon": 59.32247420530496, "alt_km": 21500.491822255415, "timestamp": "2025-12-17T19:34:08.304120+00:00", "meta": {"OBJECT_NAME": "BEIDOU-3 M20 (C42)", "OBJECT_ID": "2019-090B", "EPOCH": "2025-12-14T14:16:43.218624", "MEAN_MOTION": 1.86231589, "ECCENTRICITY": 0.00151163, "INCLINATION": 56.3967, "RA_OF_ASC_NODE": 68.9336, "ARG_OF_PERICENTER": 297.6834, "MEAN_ANOMALY": 46.2212, "EPHEMERIS_TYPE": 0, "CLASSIFICATION_TYPE": "U", "NORAD_CAT_ID": 44865, "ELEMENT_SET_NO": 999, "REV_AT_EPOCH": 4077, "BSTAR": 0, "MEAN_MOTION_DOT": -8.3e-07, "MEAN_MOTION_DDOT": 0}, "tle": {"line1": "1 44865U 19090B   25348.59494466 -.00000083  00000+0  00000+0 0  9995", "line2": "2 44865  56.3967  68.9336 0015116 297.6834  46.2212  1.86231589 40771"}}, "geometry": {"type": "Point", "coordinates": [59.32247420530496, -13.986076156521689]}}, {"type": "Feature", "properties": {"norad_id": 45344, "name": "BEIDOU-3 G2 (C60)", "group": "beidou", "lat": 2.104500801892195, "lon": 100.19508836545701, "alt_km": 35798.86017942564, "timestamp": "2025-12-17T19:34:08.304132+00:00", "meta": {"OBJECT_NAME": "BEIDOU-3 G2 (C60)", "OBJECT_ID": "2020-017A", "EPOCH": "2025-12-17T15:25:10.515648", "MEAN_MOTION": 1.002635, "ECCENTRICITY": 0.0002583, "INCLINATION": 2.506, "RA_OF_ASC_NODE": 44.0524, "ARG_OF_PERICENTER": 247.3887, "MEAN_ANOMALY": 106.3774, "EPHEMERIS_TYPE": 0, "CLASSIFICATION_TYPE": "U", "NORAD_CAT_ID": 45344, "ELEMENT_SET_NO": 999, "REV_AT_EPOCH": 2143, "BSTAR": 0, "MEAN_MOTION_DOT": -1.16e-06, "MEAN_MOTION_DDOT": 0}, "tle": {"line1": "1 45344U 20017A   25351.64248282 -.00000116  00000+0  00000+0 0  9999", "line2": "2 45344   2.5060  44.0524 0002583 247.3887 106.3774  1.00263500 21436"}}, "geometry": {"type": "Point", "coordinates": [100.19508836545701, 2.104500801892195]}}, {"type": "Feature", "properties": {"norad_id": 45807, "name": "BEIDOU-3 G3 (C61)", "group": "beidou", "lat": 1.8193154806500085, "lon": 130.8458060374208, "alt_km": 35797.23232148094, "timestamp": "2025-12-17T19:34:08.304143+00:00", "meta": {"OBJECT_NAME": "BEIDOU-3 G3 (C61)", "OBJECT_ID": "2020-040A", "EPOCH": "2025-12-17T07:00:14.827392", "MEAN_MOTION": 1.00272037, "ECCENTRICITY": 0.00063789, "INCLINATION": 2.002, "RA_OF_ASC_NODE": 66.6244, "ARG_OF_PERICENTER": 308.8404, "MEAN_ANOMALY": 286.3488, "EPHEMERIS_TYPE": 0, "CLASSIFICATION_TYPE": "U", "NORAD_CAT_ID": 45807, "ELEMENT_SET_NO": 999, "REV_AT_EPOCH": 2024, "BSTAR": 0, "MEAN_MOTION_DOT": -3.31e-06, "MEAN_MOTION_DDOT": 0}, "tle": {"line1": "1 45807U 20040A   25351.29183828 -.00000331  00000+0  00000+0 0  9993", "line2": "2 45807   2.0020  66.6244 0006378 308.8404 286.3488  1.00272037 20248"}}, "geometry": {"type": "Point", "coordinates": [130.8458060374208, 1.8193154806500085]}}, {"type": "Feature", "properties": {"norad_id": 56564, "name": "BEIDOU-3 G4 (C62)", "group": "beidou", "lat": -0.6894285081454213, "lon": -179.7276178075492, "alt_km": 35774.7589071354, "timestamp": "2025-12-17T19:34:08.304155+00:00", "meta": {"OBJECT_NAME": "BEIDOU-3 G4 (C62)", "OBJECT_ID": "2023-066A", "EPOCH": "2025-12-17T06:44:38.482944", "MEAN_MOTION": 1.00271742, "ECCENTRICITY": 0.00027703, "INCLINATION": 0.8052, "RA_OF_ASC_NODE": 302.4125, "ARG_OF_PERICENTER": 227.6484, "MEAN_ANOMALY": 177.3219, "EPHEMERIS_TYPE": 0, "CLASSIFICATION_TYPE": "U", "NORAD_CAT_ID": 56564, "ELEMENT_SET_NO": 999, "REV_AT_EPOCH": 957, "BSTAR": 0, "MEAN_MOTION_DOT": -8.5e-07, "MEAN_MOTION_DDOT": 0}, "tle": {"line1": "1 56564U 23066A   25351.28100096 -.00000085  00000+0  00000+0 0  9997", "line2": "2 56564   0.8052 302.4125 0002770 227.6484 177.3219  1.00271742  9574"}}, "geometry": {"type": "Point", "coordinates": [-179.7276178075492, -0.6894285081454213]}}]}